{"type": "FeatureCollection", "features": [ {"type": "Feature", "properties": {"norad_id": 42741, "name": "EUTELSAT 172B", "group": "eutelsat", "lat": 0.00964936459831398, "lon": -167.87780504634193, "alt_km": 35786.165650134084, "timestamp": "2025-12-18T19:29:52.214475+00:00", "meta": {"OBJECT_NAME": "EUTELSAT 172B", "OBJECT_ID": "2017-029B", "EPOCH": "2025-12-18T07:14:24.412416", "MEAN_MOTION": 1.00272338, "ECCENTRICITY": 2.118e-05, "INCLINATION": 0.0461, "RA_OF_ASC_NODE": 142.9449, "ARG_OF_PERICENTER": 302.2393, "MEAN_ANOMALY": 282.5766, "EPHEMERIS_TYPE": 0, "CLASSIFICATION_TYPE": "U", "NORAD_CAT_ID": 42741, "ELEMENT_SET_NO": 999, "REV_AT_EPOCH": 3191, "BSTAR": 0, "MEAN_MOTION_DOT": 2e-07, "MEAN_MOTION_DDOT": 0}, "tle": {"line1": "1 42741U 17029B   25352.30167144  .00000020  00000+0  00000+0 0  9990", "line2": "2 42741   0.0461 142.9449 0000211 302.2393 282.5766  1.00272338 31916"}}, "geometry": {"type": "Point", "coordinates": [-167.87780504634193, 0.00964936459831398]}}, {"type": "Feature", "properties": {"norad_id": 44334, "name": "EUTELSAT 7C", "group": "eutelsat", "lat": -0.010986330161168546, "lon": 27.136312456947543, "alt_km": 35795.63383810616, "timestamp": "2025-12-18T19:29:52.214486+00:00", "meta": {"OBJECT_NAME": "EUTELSAT 7C", "OBJECT_ID": "2019-034B", "EPOCH": "2025-12-18T04:46:38.871264", "MEAN_MOTION": 1.00271297, "ECCENTRICITY": 0.00030257, "INCLINATION": 0.0728, "RA_OF_ASC_NODE": 178.2218, "ARG_OF_PERICENTER": 71.1814, "MEAN_ANOMALY": 276.3116, "EPHEMERIS_TYPE": 0, "CLASSIFICATION_TYPE": "U", "NORAD_CAT_ID": 44334, "ELEMENT_SET_NO": 999, "REV_AT_EPOCH": 502, "BSTAR": 0, "MEAN_MOTION_DOT": 7.3e-07, "MEAN_MOTION_DDOT": 0}, "tle": {"line1": "1 44334U 19034B   25352.19906101  .00000073  00000+0  00000+0 0  9997", "line2": "2 44334   0.0728 178.2218 0003025  71.1814 276.3116  1.00271297  5020"}}, "geometry": {"type": "Point", "coordinates": [27.136312456947543, -0.010986330161168546]}}, {"type": "Feature", "properties": {"norad_id": 44624, "name": "EUTELSAT 5 WEST B", "group": "eutelsat", "lat": 0.0624946315313801, "lon": 15.167032534511455, "alt_km": 35790.14440356286, "timestamp": "2025-12-18T19:29:52.214498+00:00", "meta": {"OBJECT_NAME": "EUTELSAT 5 WEST B", "OBJECT_ID": "2019-067A", "EPOCH": "2025-12-18T03:51:38.597760", "MEAN_MOTION": 1.00271226, "ECCENTRICITY": 0.00030101, "INCLINATION": 0.0701, "RA_OF_ASC_NODE": 330.5197, "ARG_OF_PERICENTER": 296.7248, "MEAN_ANOMALY": 232.7035, "EPHEMERIS_TYPE": 0, "CLASSIFICATION_TYPE": "U", "NORAD_CAT_ID": 44624, "ELEMENT_SET_NO": 999, "REV_AT_EPOCH": 2262, "BSTAR": 0, "MEAN_MOTION_DOT": -1.7e-07, "MEAN_MOTION_DDOT": 0}, "tle": {"line1": "1 44624U 19067A   25352.16086340 -.00000017  00000+0  00000+0 0  9995", "line2": "2 44624   0.0701 330.5197 0003010 296.7248 232.7035  1.00271226 22625"}}, "geometry": {"type": "Point", "coordinates": [15.167032534511455, 0.0624946315313801]}}, {"type": "Feature", "properties": {"norad_id": 45027, "name": "EUTELSAT KONNECT", "group": "eutelsat", "lat": -0.04515111331437992, "lon": 27.342213411489798, "alt_km": 35787.1754314776, "timestamp": "2025-12-18T19:29:52.214509+00:00", "meta": {"OBJECT_NAME": "EUTELSAT KONNECT", "OBJECT_ID": "2020-005B", "EPOCH": "2025-12-18T04:46:38.871264", "MEAN_MOTION": 1.00271838, "ECCENTRICITY": 0.00012846, "INCLINATION": 0.0722, "RA_OF_ASC_NODE": 95.7515, "ARG_OF_PERICENTER": 189.5961, "MEAN_ANOMALY": 240.5809, "EPHEMERIS_TYPE": 0, "CLASSIFICATION_TYPE": "U", "NORAD_CAT_ID": 45027, "ELEMENT_SET_NO": 999, "REV_AT_EPOCH": 2252, "BSTAR": 0, "MEAN_MOTION_DOT": 7.5e-07, "MEAN_MOTION_DDOT": 0}, "tle": {"line1": "1 45027U 20005B   25352.19906101  .00000075  00000+0  00000+0 0  9999", "line2": "2 45027   0.0722  95.7515 0001284 189.5961 240.5809  1.00271838 22526"}}, "geometry": {"type": "Point", "coordinates": [27.342213411489798, -0.04515111331437992]}}, {"type": "Feature", "properties": {"norad_id": 49056, "name": "EUTELSAT QUANTUM", "group": "eutelsat", "lat": 0.034169966704128675, "lon": 67.85016710005226, "alt_km": 35798.36489404568, "timestamp": "2025-12-18T19:29:52.214521+00:00", "meta": {"OBJECT_NAME": "EUTELSAT QUANTUM", "OBJECT_ID": "2021-069B", "EPOCH": "2025-12-18T04:25:38.603712", "MEAN_MOTION": 1.00271163, "ECCENTRICITY": 0.00033271, "INCLINATION": 0.0148, "RA_OF_ASC_NODE": 19.0042, "ARG_OF_PERICENTER": 259.1281, "MEAN_ANOMALY": 283.0354, "EPHEMERIS_TYPE": 0, "CLASSIFICATION_TYPE": "U", "NORAD_CAT_ID": 49056, "ELEMENT_SET_NO": 999, "REV_AT_EPOCH": 1611, "BSTAR": 0, "MEAN_MOTION_DOT": 1.51e-06, "MEAN_MOTION_DDOT": 0}, "tle": {"line1": "1 49056U 21069B   25352.18447458  .00000151  00000+0  00000+0 0  9995", "line2": "2 49056   0.0148  19.0042 0003327 259.1281 283.0354  1.00271163 16113"}}, "geometry": {"type": "Point", "coordinates": [67.85016710005226, 0.034169966704128675]}}, {"type": "Feature", "properties": {"norad_id": 53765, "name": "EUTELSAT KONNECT VHTS", "group": "eutelsat", "lat": -0.045628640499457966, "lon": 22.86897202977208, "alt_km": 35793.84827342888, "timestamp": "2025-12-18T19:29:52.214532+00:00", "meta": {"OBJECT_NAME": "EUTELSAT KONNECT VHTS", "OBJECT_ID": "2022-110A", "EPOCH": "2025-12-16T21:55:49.974240", "MEAN_MOTION": 1.00270385, "ECCENTRICITY": 0.00023075, "INCLINATION": 0.0652, "RA_OF_ASC_NODE": 101.283, "ARG_OF_PERICENTER": 141.3704, "MEAN_ANOMALY": 174.8367, "EPHEMERIS_TYPE": 0, "CLASSIFICATION_TYPE": "U", "NORAD_CAT_ID": 53765, "ELEMENT_SET_NO": 999, "REV_AT_EPOCH": 499, "BSTAR": 0, "MEAN_MOTION_DOT": 4.1e-07, "MEAN_MOTION_DDOT": 0}, "tle": {"line1": "1 53765U 22110A   25350.91377285  .00000041  00000+0  00000+0 0  9992", "line2": "2 53765   0.0652 101.2830 0002307 141.3704 174.8367  1.00270385  4992"}}, "geometry": {"type": "Point", "coordinates": [22.86897202977208, -0.045628640499457966]}}, {"type": "Feature", "properties": {"norad_id": 54048, "name": "EUTELSAT HOTBIRD 13F", "group": "eutelsat", "lat": 0.06646260169505673, "lon": 33.12984436261228, "alt_km": 35777.89779242435, "timestamp": "2025-12-18T19:29:52.214544+00:00", "meta": {"OBJECT_NAME": "EUTELSAT HOTBIRD 13F", "OBJECT_ID": "2022-134A", "EPOCH": "2025-12-18T04:46:38.871264", "MEAN_MOTION": 1.00271514, "ECCENTRICITY": 0.00022167, "INCLINATION": 0.0523, "RA_OF_ASC_NODE": 292.8161, "ARG_OF_PERICENTER": 71.9682, "MEAN_ANOMALY": 166.9353, "EPHEMERIS_TYPE": 0, "CLASSIFICATION_TYPE": "U", "NORAD_CAT_ID": 54048, "ELEMENT_SET_NO": 999, "REV_AT_EPOCH": 1156, "BSTAR": 0, "MEAN_MOTION_DOT": 1.12e-06, "MEAN_MOTION_DDOT": 0}, "tle": {"line1": "1 54048U 22134A   25352.19906101  .00000112  00000+0  00000+0 0  9999", "line2": "2 54048   0.0523 292.8161 0002216  71.9682 166.9353  1.00271514 11563"}}, "geometry": {"type": "Point", "coordinates": [33.12984436261228, 0.06646260169505673]}}, {"type": "Feature", "properties": {"norad_id": 54225, "name": "EUTELSAT HOTBIRD 13G", "group": "eutelsat", "lat": 0.03493855636713037, "lon": 33.10132209939006, "alt_km": 35792.39143364371, "timestamp": "2025-12-18T19:29:52.214555+00:00", "meta": {"OBJECT_NAME": "EUTELSAT HOTBIRD 13G", "OBJECT_ID": "2022-146A", "EPOCH": "2025-12-18T04:46:38.871264", "MEAN_MOTION": 1.00271394, "ECCENTRICITY": 0.00019311, "INCLINATION": 0.0522, "RA_OF_ASC_NODE": 233.4415, "ARG_OF_PERICENTER": 300.2849, "MEAN_ANOMALY": 357.9907, "EPHEMERIS_TYPE": 0, "CLASSIFICATION_TYPE": "U", "NORAD_CAT_ID": 54225, "ELEMENT_SET_NO": 999, "REV_AT_EPOCH": 565, "BSTAR": 0, "MEAN_MOTION_DOT": 1.12e-06, "MEAN_MOTION_DDOT": 0}, "tle": {"line1": "1 54225U 22146A   25352.19906101  .00000112  00000+0  00000+0 0  9999", "line2": "2 54225   0.0522 233.4415 0001931 300.2849 357.9907  1.00271394  5654"}}, "geometry": {"type": "Point", "coordinates": [33.10132209939006, 0.03493855636713037]}}, {"type": "Feature", "properties": {"norad_id": 54259, "name": "EUTELSAT 10B", "group": "eutelsat", "lat": -0.03241401415961884, "lon": 30.105914271297166, "alt_km": 35785.365628472224, "timestamp": "2025-12-18T19:29:52.214567+00:00", "meta": {"OBJECT_NAME": "EUTELSAT 10B", "OBJECT_ID": "2022-157A", "EPOCH": "2025-12-18T04:46:38.871264", "MEAN_MOTION": 1.00271906, "ECCENTRICITY": 7.47e-05, "INCLINATION": 0.0611, "RA_OF_ASC_NODE": 98.7378, "ARG_OF_PERICENTER": 9.9872, "MEAN_ANOMALY": 59.9899, "EPHEMERIS_TYPE": 0, "CLASSIFICATION_TYPE": "U", "NORAD_CAT_ID": 54259, "ELEMENT_SET_NO": 999, "REV_AT_EPOCH": 1121, "BSTAR": 0, "MEAN_MOTION_DOT": 9.3e-07, "MEAN_MOTION_DDOT": 0}, "tle": {"line1": "1 54259U 22157A   25352.19906101  .00000093  00000+0  00000+0 0  9996", "line2": "2 54259   0.0611  98.7378 0000747   9.9872  59.9899  1.00271906 11210"}}, "geometry": {"type": "Point", "coordinates": [30.105914271297166, -0.03241401415961884]}}, {"type": "Feature", "properties": {"norad_id": 59346, "name": "EUTELSAT 36D", "group": "eutelsat", "lat": 0.039773651672598526, "lon": 55.96506648276437, "alt_km": 35784.26814890779, "timestamp": "2025-12-18T19:29:52.214578+00:00", "meta": {"OBJECT_NAME": "EUTELSAT 36D", "OBJECT_ID": "2024-059A", "EPOCH": "2025-12-17T22:03:22.894272", "MEAN_MOTION": 1.00271901, "ECCENTRICITY": 6.421e-05, "INCLINATION": 0.025, "RA_OF_ASC_NODE": 12.6237, "ARG_OF_PERICENTER": 351.154, "MEAN_ANOMALY": 89.689, "EPHEMERIS_TYPE": 0, "CLASSIFICATION_TYPE": "U", "NORAD_CAT_ID": 59346, "ELEMENT_SET_NO": 999, "REV_AT_EPOCH": 633, "BSTAR": 0, "MEAN_MOTION_DOT": 0, "MEAN_MOTION_DDOT": 0}, "tle": {"line1": "1 59346U 24059A   25351.91901498  .00000000  00000+0  00000+0 0  9992", "line2": "2 59346   0.0250  12.6237 0000642 351.1540  89.6890  1.00271901  6331"}}, "geometry": {"type": "Point", "coordinates": [55.96506648276437, 0.039773651672598526]}}]}